{
    "links": {
        "self": "http://www.neowsapp.com/rest/v1/neo/3373682?api_key=iIulBulltgU6a56xZRHN4H3l9WmuAYTsLGpBGhQ2"
    },
    "id": "3373682",
    "neo_reference_id": "3373682",
    "name": "(2007 GQ3)",
    "designation": "2007 GQ3",
    "nasa_jpl_url": "http://ssd.jpl.nasa.gov/sbdb.cgi?sstr=3373682",
    "absolute_magnitude_h": 22.0,
    "estimated_diameter": {
        "kilometers": {
            "estimated_diameter_min": 0.1058168859,
            "estimated_diameter_max": 0.2366137501
        },
        "meters": {
            "estimated_diameter_min": 105.8168859331,
            "estimated_diameter_max": 236.6137501138
        },
        "miles": {
            "estimated_diameter_min": 0.0657515442,
            "estimated_diameter_max": 0.1470249225
        },
        "feet": {
            "estimated_diameter_min": 347.1682720448,
            "estimated_diameter_max": 776.2918559233
        }
    },
    "is_potentially_hazardous_asteroid": true,
    "close_approach_data": [
        {
            "close_approach_date": "2007-05-04",
            "close_approach_date_full": "2007-May-04 03:06",
            "epoch_date_close_approach": 1178247960000,
            "relative_velocity": {
                "kilometers_per_second": "8.9735271017",
                "kilometers_per_hour": "32304.6975661501",
                "miles_per_hour": "20072.8827738114"
            },
            "miss_distance": {
                "astronomical": "0.0327891606",
                "lunar": "12.7549834734",
                "kilometers": "4905188.584847922",
                "miles": "3047942.8516364436"
            },
            "orbiting_body": "Earth"
        },
        {
            "close_approach_date": "2087-04-22",
            "close_approach_date_full": "2087-Apr-22 18:28",
            "epoch_date_close_approach": 3701874480000,
            "relative_velocity": {
                "kilometers_per_second": "10.6390759988",
                "kilometers_per_hour": "38300.6735957009",
                "miles_per_hour": "23798.5491017287"
            },
            "miss_distance": {
                "astronomical": "0.0550597801",
                "lunar": "21.4182544589",
                "kilometers": "8236825.825628387",
                "miles": "5118126.2373782606"
            },
            "orbiting_body": "Earth"
        },
        {
            "close_approach_date": "2099-07-27",
            "close_approach_date_full": "2099-Jul-27 17:11",
            "epoch_date_close_approach": 4088855460000,
            "relative_velocity": {
                "kilometers_per_second": "18.4581433845",
                "kilometers_per_hour": "66449.3161841698",
                "miles_per_hour": "41289.0209367693"
            },
            "miss_distance": {
                "astronomical": "0.4108555763",
                "lunar": "159.8228191807",
                "kilometers": "61463119.092102481",
                "miles": "38191411.2445609978"
            },
            "orbiting_body": "Earth"
        },
        {
            "close_approach_date": "2104-03-28",
            "close_approach_date_full": "2104-Mar-28 15:16",
            "epoch_date_close_approach": 4236160560000,
            "relative_velocity": {
                "kilometers_per_second": "20.6332644787",
                "kilometers_per_hour": "74279.7521233621",
                "miles_per_hour": "46154.5493124302"
            },
            "miss_distance": {
                "astronomical": "0.4197638869",
                "lunar": "163.2881520041",
                "kilometers": "62795783.383160903",
                "miles": "39019490.4364823414"
            },
            "orbiting_body": "Earth"
        },
        {
            "close_approach_date": "2145-07-25",
            "close_approach_date_full": "2145-Jul-25 10:49",
            "epoch_date_close_approach": 5540266140000,
            "relative_velocity": {
                "kilometers_per_second": "17.1061307078",
                "kilometers_per_hour": "61582.070547986",
                "miles_per_hour": "38264.7037802194"
            },
            "miss_distance": {
                "astronomical": "0.3724873827",
                "lunar": "144.8975918703",
                "kilometers": "55723319.053794849",
                "miles": "34624864.8837089562"
            },
            "orbiting_body": "Earth"
        }
    ],
    "orbital_data": {
        "orbit_id": "23",
        "orbit_determination_date": "2017-04-06 09:06:36",
        "first_observation_date": "2007-04-11",
        "last_observation_date": "2007-04-27",
        "data_arc_in_days": 16,
        "observations_used": 177,
        "orbit_uncertainty": "7",
        "minimum_orbit_intersection": ".0208508",
        "jupiter_tisserand_invariant": "3.918",
        "epoch_osculation": "2459000.5",
        "eccentricity": ".4501574244910047",
        "semi_major_axis": "1.80511312796009",
        "inclination": "10.19099362595023",
        "ascending_node_longitude": "34.51316680517885",
        "orbital_period": "885.8395451542898",
        "perihelion_distance": ".9925280513626742",
        "perihelion_argument": "209.6528643696472",
        "aphelion_distance": "2.617698204557505",
        "perihelion_time": "2458672.334070227370",
        "mean_anomaly": "133.36471075873",
        "mean_motion": ".4063941398521529",
        "equinox": "J2000",
        "orbit_class": {
            "orbit_class_type": "APO",
            "orbit_class_description": "Near-Earth asteroid orbits which cross the Earth’s orbit similar to that of 1862 Apollo",
            "orbit_class_range": "a (semi-major axis) > 1.0 AU; q (perihelion) < 1.017 AU"
        }
    },
    "is_sentry_object": false
}